{
    "links": {
        "self": "http://www.neowsapp.com/rest/v1/neo/3785762?api_key=iIulBulltgU6a56xZRHN4H3l9WmuAYTsLGpBGhQ2"
    },
    "id": "3785762",
    "neo_reference_id": "3785762",
    "name": "(2017 TB4)",
    "designation": "2017 TB4",
    "nasa_jpl_url": "http://ssd.jpl.nasa.gov/sbdb.cgi?sstr=3785762",
    "absolute_magnitude_h": 21.8,
    "estimated_diameter": {
        "kilometers": {
            "estimated_diameter_min": 0.1160259082,
            "estimated_diameter_max": 0.2594418179
        },
        "meters": {
            "estimated_diameter_min": 116.0259082094,
            "estimated_diameter_max": 259.4418179074
        },
        "miles": {
            "estimated_diameter_min": 0.0720951346,
            "estimated_diameter_max": 0.1612096218
        },
        "feet": {
            "estimated_diameter_min": 380.6624406898,
            "estimated_diameter_max": 851.1870938635
        }
    },
    "is_potentially_hazardous_asteroid": false,
    "close_approach_data": [
        {
            "close_approach_date": "2017-10-10",
            "close_approach_date_full": "2017-Oct-10 15:58",
            "epoch_date_close_approach": 1507651080000,
            "relative_velocity": {
                "kilometers_per_second": "18.7690202142",
                "kilometers_per_hour": "67568.4727709717",
                "miles_per_hour": "41984.4213170518"
            },
            "miss_distance": {
                "astronomical": "0.1487168887",
                "lunar": "57.8508697043",
                "kilometers": "22247729.782547069",
                "miles": "13824098.2549207922"
            },
            "orbiting_body": "Earth"
        }
    ],
    "orbital_data": {
        "orbit_id": "8",
        "orbit_determination_date": "2017-11-12 06:18:35",
        "first_observation_date": "2017-10-12",
        "last_observation_date": "2017-11-12",
        "data_arc_in_days": 31,
        "observations_used": 58,
        "orbit_uncertainty": "7",
        "minimum_orbit_intersection": ".052648",
        "jupiter_tisserand_invariant": "3.535",
        "epoch_osculation": "2459000.5",
        "eccentricity": ".5018458283169678",
        "semi_major_axis": "2.024306177742148",
        "inclination": "26.57064905128598",
        "ascending_node_longitude": "192.1000877037774",
        "orbital_period": "1051.992703460381",
        "perihelion_distance": "1.008416567205985",
        "perihelion_argument": "149.7620551861457",
        "aphelion_distance": "3.040195788278312",
        "perihelion_time": "2459065.253158065536",
        "mean_anomaly": "337.8409709241193",
        "mean_motion": ".3422076967034381",
        "equinox": "J2000",
        "orbit_class": {
            "orbit_class_type": "APO",
            "orbit_class_description": "Near-Earth asteroid orbits which cross the Earth’s orbit similar to that of 1862 Apollo",
            "orbit_class_range": "a (semi-major axis) > 1.0 AU; q (perihelion) < 1.017 AU"
        }
    },
    "is_sentry_object": false
}